ONEWEB-0128             
1 47274U 20100S   24253.91206801  .00000239  00000+0  63035-3 0  9993
2 47274  87.8899 119.2047 0001576  88.2670 271.8639 13.12443195180108
ONEWEB-0129             
1 47275U 20100T   24254.11969013 -.00000296  00000+0 -85710-3 0  9997
2 47275  87.8890 119.1243 0003336  84.4771 275.6738 13.12443127180065
ONEWEB-0130             
1 47276U 20100U   24254.14727107  .00000379  00000+0  10173-2 0  9997
2 47276  87.8889 119.1255 0001775  83.5150 276.6180 13.12443061180039
ONEWEB-0131             
1 47277U 20100V   24253.91531342  .00000240  00000+0  63048-3 0  9993
2 47277  87.8894 119.1889 0001633  84.0958 276.0356 13.12442820180046
ONEWEB-0132             
1 47278U 20100W   24253.71579821  .00000107  00000+0  26331-3 0  9992
2 47278  87.8892 119.2307 0001463  76.1263 284.0028 13.12442549179910
ONEWEB-0133             
1 47279U 20100X   24253.65576667 -.00000391  00000+0 -11215-2 0  9992
2 47279  87.8888 119.2366 0001632  82.4662 277.6651 13.12439716180062
ONEWEB-0134             
1 47280U 20100Y   24253.92993576  .00000497  00000+0  13450-2 0  9994
2 47280  87.8885 119.1688 0001793  88.5449 271.5885 13.12443082180079
ONEWEB-0135             
1 47281U 20100Z   24254.12940718 -.00000468  00000+0 -13356-2 0  9993
2 47281  87.8892 119.1500 0001699  97.3771 262.7550 13.12442674180125
